NORAD_CAT_ID,OBJECT_NAME,OBJECT_TYPE,EPOCH,MEAN_MOTION,ECCENTRICITY,INCLINATION,RA_OF_ASC_NODE,ARG_OF_PERICENTER,MEAN_ANOMALY,BSTAR,MEAN_MOTION_DOT,MEAN_MOTION_DDOT,TLE_LINE0,TLE_LINE1,TLE_LINE2,SEMIMAJOR_AXIS,PERIOD,APOGEE,PERIGEE,DECAYED
49753.0,STARLINK-3200,PAYLOAD,2022-04-06 14:00:01,15.08833344,0.0002256,53.2232,102.5611,37.1149,129.1484,-0.00010346,-1.934e-05,0.0,0 STARLINK-3200,1 49753U 21115AF  22096.58334491 -.00001934  00000-0 -10346-3 0  9990,2 49753  53.2232 102.5611 0002256  37.1149 129.1484 15.08833344  3600,6917.901,95.438,541.326,538.205,0.0
49753.0,STARLINK-3200,PAYLOAD,2022-04-06 22:00:00,15.0881766,0.0002088,53.2237,101.0634,41.7979,136.0589,0.0026937,0.00042817,0.0,0 STARLINK-3200,1 49753U 21115AF  22096.91667824  .00042817  00000-0  26937-2 0  9991,2 49753  53.2237 101.0634 0002088  41.7979 136.0589 15.08817660 20345,6917.949000000001,95.439,541.258,538.369,0.0
49753.0,STARLINK-3200,PAYLOAD,2022-04-07 14:00:01,15.08869135,0.0002288,53.2239,98.0727,38.4592,162.5774,-0.002896,-0.00046122,0.0,0 STARLINK-3200,1 49753U 21115AF  22097.58334491 -.00046122  00000-0 -28960-2 0  9999,2 49753  53.2239  98.0727 0002288  38.4592 162.5774 15.08869135  3605,6917.791,95.436,541.239,538.0740000000002,0.0
49753.0,STARLINK-3200,PAYLOAD,2022-04-07 20:00:01,15.08822434,0.0002076,53.2242,96.9493,40.8515,78.9107,0.0015630999999999,0.00024664,0.0,0 STARLINK-3200,1 49753U 21115AF  22097.83334491  .00024664  00000-0  15631-2 0  9993,2 49753  53.2242  96.9493 0002076  40.8515  78.9107 15.08822434 20489,6917.934,95.439,541.235,538.363,0.0
49753.0,STARLINK-3200,PAYLOAD,2022-04-07 22:00:00,15.08820569,0.0002069,53.2242,96.5751,41.7016,170.9569,0.0022823,0.00036203,0.0,0 STARLINK-3200,1 49753U 21115AF  22097.91667824  .00036203  00000-0  22823-2 0  9994,2 49753  53.2242  96.5751 0002069  41.7016 170.9569 15.08820569  3562,6917.94,95.439,541.236,538.373,0.0
49753.0,STARLINK-3200,PAYLOAD,2022-04-08 14:00:03,15.08862753,0.0002237,53.2242,93.5843,38.7499,197.2147,-0.0011502,-0.00018559,0.0,0 STARLINK-3200,1 49753U 21115AF  22098.58336806 -.00018559  00000-0 -11502-2 0  9999,2 49753  53.2242  93.5843 0002237  38.7499 197.2147 15.08862753  3609,6917.811,95.436,541.2230000000002,538.128,0.0
49753.0,STARLINK-3200,PAYLOAD,2022-04-08 22:00:00,15.08845385,0.000203,53.2244,92.0869,42.6983,204.7572,-6.5826e-05,-1.336e-05,0.0,0 STARLINK-3200,1 49753U 21115AF  22098.91667824 -.00001336  00000-0 -65826-4 0  9998,2 49753  53.2244  92.0869 0002030  42.6983 204.7572 15.08845385 20658,6917.864000000001,95.437,541.133,538.325,0.0
49753.0,STARLINK-3200,PAYLOAD,2022-04-09 14:00:01,15.08859227,0.0002117,53.2241,89.0961,37.1133,233.5235,-0.0043731,-0.00069256,0.0,0 STARLINK-3200,1 49753U 21115AF  22099.58334491 -.00069256  00000-0 -43731-2 0  9997,2 49753  53.2241  89.0961 0002117  37.1133 233.5235 15.08859227  3608,6917.821999999999,95.436,541.151,538.222,0.0
49753.0,STARLINK-3200,PAYLOAD,2022-04-09 22:00:00,15.08808054,0.0001932,53.2242,87.5987,41.7762,240.4559,0.0025163,0.00039951,0.0,0 STARLINK-3200,1 49753U 21115AF  22099.91667824  .00039951  00000-0  25163-2 0  9999,2 49753  53.2242  87.5987 0001932  41.7762 240.4559 15.08808054 20802,6917.978,95.44,541.18,538.506,0.0
49753.0,STARLINK-3200,PAYLOAD,2022-04-10 14:00:01,15.08853039,0.0002098,53.2236,84.6079,38.9423,266.4454,-0.0017894,-0.00028664,0.0,0 STARLINK-3200,1 49753U 21115AF  22100.58334491 -.00028664  00000-0 -17894-2 0  9999,2 49753  53.2236  84.6079 0002098  38.9423 266.4454 15.08853039 20907,6917.840999999999,95.437,541.1569999999998,538.254,0.0
49753.0,STARLINK-3200,PAYLOAD,2022-04-10 22:00:00,15.08849269,0.0002004,53.2226,83.1127,45.8478,271.1489,-0.00041843,-6.943e-05,0.0,0 STARLINK-3200,1 49753U 21115AF  22100.91667824 -.00006943  00000-0 -41843-3 0  9993,2 49753  53.2226  83.1127 0002004  45.8478 271.1489 15.08849269  3607,6917.852,95.437,541.1030000000002,538.331,0.0
49753.0,STARLINK-3200,PAYLOAD,2022-04-11 06:00:00,15.08826414,0.0002262,53.2237,81.6163,43.7372,284.8571,0.00030935,4.637e-05,0.0,0 STARLINK-3200,1 49753U 21115AF  22101.25001157  .00004637  00000-0  30935-3 0  9998,2 49753  53.2237  81.6163 0002262  43.7372 284.8571 15.08826414 21002,6917.922,95.438,541.352,538.222,0.0
49753.0,STARLINK-3200,PAYLOAD,2022-04-11 14:00:01,15.08855546,0.0002189,53.2233,80.1194,43.0028,297.1647,-0.0025333,-0.00040398,0.0,0 STARLINK-3200,1 49753U 21115AF  22101.58334491 -.00040398  00000-0 -25333-2 0  9995,2 49753  53.2233  80.1194 0002189  43.0028 297.1647 15.08855546  3598,6917.833000000001,95.437,541.212,538.184,0.0
49753.0,STARLINK-3200,PAYLOAD,2022-04-11 22:00:00,15.08824614,0.0002065,53.2235,78.6222,47.5714,304.1967,0.00054189,8.343e-05,0.0,0 STARLINK-3200,1 49753U 21115AF  22101.91667824  .00008343  00000-0  54189-3 0  9995,2 49753  53.2235  78.6222 0002065  47.5714 304.1967 15.08824614  3583,6917.927,95.439,541.221,538.364,0.0
49753.0,STARLINK-3200,PAYLOAD,2022-04-12 06:00:02,15.08818002,0.0002263,53.2234,77.1279,43.2171,320.1927,0.00045528,6.961e-05,0.0,0 STARLINK-3200,1 49753U 21115AF  22102.25002315  .00006961  00000-0  45528-3 0  9992,2 49753  53.2234  77.1279 0002263  43.2171 320.1927 15.08818002 21159,6917.948,95.439,541.378,538.247,0.0
49753.0,STARLINK-3200,PAYLOAD,2022-04-12 14:00:01,15.0884305,0.0002208,53.2232,75.6308,43.0505,331.8621,-0.0018761,-0.00030026,0.0,0 STARLINK-3200,1 49753U 21115AF  22102.58334491 -.00030026  00000-0 -18761-2 0  9990,2 49753  53.2232  75.6308 0002208  43.0505 331.8621 15.08843050  3602,6917.871,95.437,541.264,538.2090000000002,0.0
49753.0,STARLINK-3200,PAYLOAD,2022-04-12 22:00:00,15.08829004,0.0002146,53.2235,74.1337,48.188,338.3102,0.0017599,0.00027824,0.0,0 STARLINK-3200,1 49753U 21115AF  22102.91667824  .00027824  00000-0  17599-2 0  9994,2 49753  53.2235  74.1337 0002146  48.1880 338.3102 15.08829004  3579,6917.9140000000025,95.438,541.264,538.294,0.0
49753.0,STARLINK-3200,PAYLOAD,2022-04-13 14:00:03,15.08866437,0.0002284,53.2236,71.1418,45.0417,4.774,-0.0014767,-0.00023731,0.0,0 STARLINK-3200,1 49753U 21115AF  22103.58336806 -.00023731  00000-0 -14767-2 0  9990,2 49753  53.2236  71.1418 0002284  45.0417   4.7740 15.08866437 21351,6917.8,95.436,541.245,538.085,0.0
49753.0,STARLINK-3200,PAYLOAD,2022-04-13 22:00:00,15.08874874,0.0002207,53.2232,69.645,48.898,12.4061,-0.0013395,-0.00021564,0.0,0 STARLINK-3200,1 49753U 21115AF  22103.91667824 -.00021564  00000-0 -13395-2 0  9992,2 49753  53.2232  69.6450 0002207  48.8980  12.4061 15.08874874  3600,6917.774,95.435,541.1659999999998,538.112,0.0
49753.0,STARLINK-3200,PAYLOAD,2022-04-14 14:00:01,15.08859391,0.0002221,53.2222,66.653,43.5125,41.0115,-0.0039726,-0.00062995,0.0,0 STARLINK-3200,1 49753U 21115AF  22104.58334491 -.00062995  00000-0 -39726-2 0  9996,2 49753  53.2222  66.6530 0002221  43.5125  41.0115 15.08859391 21508,6917.821,95.436,541.2230000000002,538.15,0.0
49753.0,STARLINK-3200,PAYLOAD,2022-04-14 22:00:00,15.0882841,0.0002152,53.2226,65.1562,46.9075,49.20399999999999,0.00080484,0.0001254,0.0,0 STARLINK-3200,1 49753U 21115AF  22104.91667824  .00012540  00000-0  80484-3 0  9999,2 49753  53.2226  65.1562 0002152  46.9075  49.2040 15.08828410  3601,6917.916,95.438,541.27,538.2919999999998,0.0
49753.0,STARLINK-3200,PAYLOAD,2022-04-15 06:00:00,15.08837936,0.0002318,53.2227,63.6618,43.4757,64.2428,0.0027017,0.0004297,0.0,0 STARLINK-3200,1 49753U 21115AF  22105.25001157  .00042970  00000-0  27017-2 0  9990,2 49753  53.2227  63.6618 0002318  43.4757  64.2428 15.08837936 21600,6917.887,95.438,541.355,538.148,0.0
49753.0,STARLINK-3200,PAYLOAD,2022-04-15 14:00:01,15.08884298,0.0002161,53.2229,62.1643,45.3193,74.0071,-0.0010390999999999,-0.00016808,0.0,0 STARLINK-3200,1 49753U 21115AF  22105.58334491 -.00016808  00000-0 -10391-2 0  9996,2 49753  53.2229  62.1643 0002161  45.3193  74.0071 15.08884298  3601,6917.745,95.435,541.105,538.115,0.0
49753.0,STARLINK-3200,PAYLOAD,2022-04-15 22:00:00,15.08861596,0.0002084,53.2233,60.6677,47.0147,83.93,-0.00061664,-0.00010095,0.0,0 STARLINK-3200,1 49753U 21115AF  22105.91667824 -.00010095  00000-0 -61664-3 0  9994,2 49753  53.2233  60.6677 0002084  47.0147  83.9300 15.08861596 21709,6917.814,95.436,541.121,538.238,0.0
49753.0,STARLINK-3200,PAYLOAD,2022-04-16 14:00:01,15.088005,0.0001887,53.2233,57.6757,38.0925,116.0586,-0.0016565999999999,-0.00026528,0.0,0 STARLINK-3200,1 49753U 21115AF  22106.58334491 -.00026528  00000-0 -16566-2 0  9997,2 49753  53.2233  57.6757 0001887  38.0925 116.0586 15.08800500 21801,6918.001,95.44,541.172,538.561,0.0
49753.0,STARLINK-3200,PAYLOAD,2022-04-16 22:00:01,15.08799082,0.0001856,53.2237,56.1795,42.0014,123.7413,4.7812e-05,4.72e-06,0.0,0 STARLINK-3200,1 49753U 21115AF  22106.91668981  .00000472  00000-0  47812-4 0  9996,2 49753  53.2237  56.1795 0001856  42.0014 123.7413 15.08799082  3593,6918.005,95.44,541.154,538.586,0.0
49753.0,STARLINK-3200,PAYLOAD,2022-04-17 06:00:00,15.08775608,0.0002037,53.2236,54.6853,36.7153,140.5178,0.00341,0.00054305,0.0,0 STARLINK-3200,1 49753U 21115AF  22107.25001157  .00054305  00000-0  34100-2 0  9998,2 49753  53.2236  54.6853 0002037  36.7153 140.5178 15.08775608 21904,6918.0769999999975,95.442,541.351,538.533,0.0
49753.0,STARLINK-3200,PAYLOAD,2022-04-17 14:00:01,15.08822091,0.0001834,53.2234,53.1877,38.5643,150.2095,0.001562,0.00024646,0.0,0 STARLINK-3200,1 49753U 21115AF  22107.58334491  .00024646  00000-0  15620-2 0  9995,2 49753  53.2234  53.1877 0001834  38.5643 150.2095 15.08822091  3567,6917.935,95.439,541.069,538.531,0.0
49753.0,STARLINK-3200,PAYLOAD,2022-04-17 22:00:00,15.0885631,0.0001803,53.2237,51.6919,41.6232,158.7284,-0.00035986,-6.013e-05,0.0,0 STARLINK-3200,1 49753U 21115AF  22107.91667824 -.00006013  00000-0 -35986-3 0  9999,2 49753  53.2237  51.6919 0001803  41.6232 158.7284 15.08856310  3569,6917.831,95.437,540.943,538.448,0.0
